H1 CPF 01  gfz 2021 12 27 01  8611 terrasarx 
H2 0702601  6201 31698    2021 12 27 00 59 42 2022 01 01 00 00 42   120 1 1  0 0 0
H9
10 0 59575  36702.000000  0    1533487.081  -4397037.753  -5083770.434
10 0 59575  36822.000000  0    1105632.530  -3804998.696  -5642165.074
10 0 59575  36942.000000  0     669594.309  -3139358.820  -6101934.160
10 0 59575  37062.000000  0     234138.488  -2411652.922  -6455134.546
10 0 59575  37182.000000  0    -192205.776  -1634615.167  -6695677.722
10 0 59575  37302.000000  0    -601308.846   -821955.848  -6819424.590
10 0 59575  37422.000000  0    -985590.765     11878.041  -6824249.112
10 0 59575  37542.000000  0   -1338158.016    851954.301  -6710069.762
10 0 59575  37662.000000  0   -1652924.324   1683115.906  -6478850.501
10 0 59575  37782.000000  0   -1924713.251   2490247.581  -6134570.424
10 0 59575  37902.000000  0   -2149342.922   3258545.260  -5683164.109
10 0 59575  38022.000000  0   -2323690.690   3973785.513  -5132429.381
10 0 59575  38142.000000  0   -2445737.055   4622589.991  -4491904.523
10 0 59575  38262.000000  0   -2514587.884   5192680.578  -3772713.185
10 0 59575  38382.000000  0   -2530473.128   5673117.935  -2987379.145
10 0 59575  38502.000000  0   -2494722.210   6054519.910  -2149615.747
10 0 59575  38622.000000  0   -2409716.942   6329256.109  -1274089.408
10 0 59575  38742.000000  0   -2278821.913   6491609.144   -376161.285
10 0 59575  38862.000000  0   -2106294.695   6537901.968    528384.558
10 0 59575  38982.000000  0   -1897176.984   6466587.874   1423627.599
10 0 59575  39102.000000  0   -1657167.505   6278292.881   2293802.780
10 0 59575  39222.000000  0   -1392481.854   5975813.478   3123586.492
10 0 59575  39342.000000  0   -1109703.836   5564071.901   3898372.553
10 0 59575  39462.000000  0    -815632.129   5050030.490   4604534.172
10 0 59575  39582.000000  0    -517124.000   4442564.464   5229667.476
10 0 59575  39702.000000  0    -220940.159   3752297.795   5762806.393
10 0 59575  39822.000000  0      66402.668   2991409.912   6194611.747
10 0 59575  39942.000000  0     338770.657   2173412.455   6517529.561
10 0 59575  40062.000000  0     590540.315   1312904.705   6725917.016
10 0 59575  40182.000000  0     816712.018    425309.619   6816135.268
10 0 59575  40302.000000  0    1013007.441   -473402.392   6786608.166
10 0 59575  40422.000000  0    1175949.669  -1366999.812   6637849.333
10 0 59575  40542.000000  0    1302924.848  -2239282.823   6372454.112
10 0 59575  40662.000000  0    1392224.267  -3074377.180   5995057.782
10 0 59575  40782.000000  0    1443065.916  -3857025.394   5512259.005
10 0 59575  40902.000000  0    1455595.410  -4572868.043   4932508.916
10 0 59575  41022.000000  0    1430867.423  -5208711.353   4265969.804
10 0 59575  41142.000000  0    1370806.969  -5752779.340   3524343.018
10 0 59575  41262.000000  0    1278151.079  -6194941.988   2720664.628
10 0 59575  41382.000000  0    1156371.711  -6526912.305   1869075.600
10 0 59575  41502.000000  0    1009581.608  -6742410.975    984570.754
10 0 59575  41622.000000  0     842426.019  -6837292.938     82729.096
10 0 59575  41742.000000  0     659961.545  -6809632.433   -820569.924
10 0 59575  41862.000000  0     467525.325  -6659760.098  -1709436.940
10 0 59575  41982.000000  0     270600.369  -6390253.696  -2568260.039
10 0 59575  42102.000000  0      74679.334  -6005885.597  -3381984.368
10 0 59575  42222.000000  0    -114870.303  -5513527.792  -4136379.592
10 0 59575  42342.000000  0    -292936.278  -4922015.712  -4818288.716
10 0 59575  42462.000000  0    -454783.308  -4241976.818  -5415852.481
10 0 59575  42582.000000  0    -596164.037  -3485628.889  -5918707.952
10 0 59575  42702.000000  0    -713416.548  -2666552.128  -6318158.135
10 0 59575  42822.000000  0    -803547.080  -1799440.378  -6607311.122
10 0 59575  42942.000000  0    -864296.608   -899836.792  -6781187.626
10 0 59575  43062.000000  0    -894190.455     16141.856  -6836798.146
10 0 59575  43182.000000  0    -892569.609    932088.734  -6773187.783
10 0 59575  43302.000000  0    -859603.993   1831593.025  -6591450.408
10 0 59575  43422.000000  0    -796287.686   2698526.398  -6294711.820
10 0 59575  43542.000000  0    -704415.566   3517326.355  -5888083.143
10 0 59575  43662.000000  0    -586541.898   4273273.732  -5378582.209
10 0 59575  43782.000000  0    -445921.100   4952757.857  -4775023.373
10 0 59575  43902.000000  0    -286432.361   5543526.993  -4087876.559
10 0 59575  44022.000000  0    -112488.747   6034917.935  -3329095.032
10 0 59575  44142.000000  0      71067.733   6418059.109  -2511914.800
10 0 59575  44262.000000  0     259082.791   6686043.345  -1650628.118
10 0 59575  44382.000000  0     446215.742   6834065.288   -760333.826
10 0 59575  44502.000000  0     627071.899   6859518.650    143330.838
10 0 59575  44622.000000  0     796338.232   6762050.260   1044471.534
10 0 59575  44742.000000  0     948918.223   6543568.155   1927224.872
10 0 59575  44862.000000  0    1080061.200   6208204.106   2776046.028
10 0 59575  44982.000000  0    1185484.339   5762233.147   3575989.756
10 0 59575  45102.000000  0    1261484.618   5213949.661   4312980.164
10 0 59575  45222.000000  0    1305039.014   4573505.584   4974063.310
10 0 59575  45342.000000  0    1313885.364   3852709.098   5547637.051
10 0 59575  45462.000000  0    1286587.812   3064797.089   6023648.606
10 0 59575  45582.000000  0    1222583.225   2224185.514   6393766.453
10 0 59575  45702.000000  0    1122207.557   1346199.861   6651520.748
10 0 59575  45822.000000  0     986702.507    446791.753   6792410.137
10 0 59575  45942.000000  0     818202.078   -457750.840   6813974.419
10 0 59575  46062.000000  0     619699.109  -1351097.433   6715836.362
10 0 59575  46182.000000  0     394991.997  -2217169.968   6499708.308
10 0 59575  46302.000000  0     148612.320  -3040432.409   6169364.616
10 0 59575  46422.000000  0    -114264.888  -3806171.342   5730577.909
10 0 59575  46542.000000  0    -387926.060  -4500759.468   5191022.280
10 0 59575  46662.000000  0    -666238.049  -5111901.854   4560147.363
10 0 59575  46782.000000  0    -942780.571  -5628863.322   3849020.377
10 0 59575  46902.000000  0   -1210988.816  -6042667.414   3070134.130
10 0 59575  47022.000000  0   -1464302.296  -6346261.299   2237187.858
10 0 59575  47142.000000  0   -1696316.840  -6534645.609   1364845.024
10 0 59575  47262.000000  0   -1900937.351  -6604964.149    468469.305
10 0 59575  47382.000000  0   -2072524.361  -6556549.488   -436154.307
10 0 59575  47502.000000  0   -2206032.045  -6390924.666  -1333106.291
10 0 59575  47622.000000  0   -2297134.573  -6111760.934  -2206621.159
10 0 59575  47742.000000  0   -2342337.730  -5724792.873  -3041371.990
10 0 59575  47862.000000  0   -2339072.616  -5237692.416  -3822744.811
10 0 59575  47982.000000  0   -2285768.957  -4659905.638  -4537095.714
10 0 59575  48102.000000  0   -2181906.871  -4002458.554  -5171985.632
10 0 59575  48222.000000  0   -2028046.767  -3277737.564  -5716390.105
10 0 59575  48342.000000  0   -1825837.003  -2499249.294  -6160882.036
10 0 59575  48462.000000  0   -1577998.716  -1681364.070  -6497784.637
10 0 59575  48582.000000  0   -1288288.904   -839049.312  -6721292.075
10 0 59575  48702.000000  0    -961443.697     12401.913  -6827558.793
10 0 59575  48822.000000  0    -603101.626    857643.025  -6814757.882
10 0 59575  48942.000000  0    -219707.742   1681543.361  -6683108.845
10 0 59575  49062.000000  0     181598.463   2469451.758  -6434874.211
10 0 59575  49182.000000  0     593111.921   3207452.053  -6074326.983
10 0 59575  49302.000000  0    1006706.649   3882607.073  -5607684.780
10 0 59575  49422.000000  0    1413991.582   4483185.111  -5043012.252
10 0 59575  49542.000000  0    1806476.831   4998867.997  -4390093.959
10 0 59575  49662.000000  0    2175747.506   5420936.261  -3660274.932
10 0 59575  49782.000000  0    2513640.893   5742425.570  -2866271.908
10 0 59575  49902.000000  0    2812424.033   5958252.705  -2021957.912
10 0 59575  50022.000000  0    3064967.689   6065306.801  -1142121.750
10 0 59575  50142.000000  0    3264911.418   6062502.253   -242206.346
10 0 59575  50262.000000  0    3406815.030   5950790.670    661968.085
10 0 59575  50382.000000  0    3486293.126   5733131.700   1554489.126
10 0 59575  50502.000000  0    3500129.688   5414424.371   2419640.064
10 0 59575  50622.000000  0    3446368.361   5001399.865   3242185.421
10 0 59575  50742.000000  0    3324377.250   4502476.117   4007646.929
10 0 59575  50862.000000  0    3134886.952   3927581.485   4702562.667
10 0 59575  50982.000000  0    2879997.133   3287950.173   5314728.123
10 0 59575  51102.000000  0    2563154.810   2595894.161   5833407.374
10 0 59575  51222.000000  0    2189108.325   1864561.079   6249516.423
10 0 59575  51342.000000  0    1763834.568   1107679.733   6555777.976
10 0 59575  51462.000000  0    1294440.430    339299.095   6746841.790
10 0 59575  51582.000000  0     789042.248   -426471.759   6819371.853
10 0 59575  51702.000000  0     256625.103  -1175722.105   6772102.572
10 0 59575  51822.000000  0    -293117.202  -1894992.510   6605859.467
10 0 59575  51942.000000  0    -849958.660  -2571516.532   6323545.110
10 0 59575  52062.000000  0   -1403330.146  -3193447.615   5930090.013
10 0 59575  52182.000000  0   -1942517.112  -3750067.278   5432371.598
10 0 59575  52302.000000  0   -2456866.788  -4231973.622   4839102.250
10 0 59575  52422.000000  0   -2936001.295  -4631246.756   4160683.837
10 0 59575  52542.000000  0   -3370030.335  -4941585.855   3409028.971
10 0 59575  52662.000000  0   -3749757.272  -5158414.639   2597352.530
10 0 59575  52782.000000  0   -4066874.672  -5278953.341   1739938.554
10 0 59575  52902.000000  0   -4314146.376  -5302255.415    851885.090
10 0 59575  53022.000000  0   -4485570.248  -5229206.803    -51168.057
10 0 59575  53142.000000  0   -4576517.660  -5062488.335   -953322.805
99
